start=new Date('2022-04-08T00:00:00.000Z').valueOf();
sats=[{"INCLINATION":"53.0588","BSTAR":"0.00152990000000","PERIAPSIS":"532.416","EPHEMERIS_TYPE":"0","CLASSIFICATION_TYPE":"U","LAUNCH_DATE":"2020-04-22","NORAD_CAT_ID":"45561","EPOCH":"2022-04-07T20:30:22.434048","OBJECT_TYPE":"PAYLOAD","COUNTRY_CODE":"US","CENTER_NAME":"EARTH","ARG_OF_PERICENTER":"110.3213","TLE_LINE1":"1 45561U 20025AG  22097.85442632  .00025533  00000-0  15299-2 0  9990","APOAPSIS":"534.818","TLE_LINE2":"2 45561  53.0588 306.5334 0001738 110.3213 249.7965 15.10847221110797","RCS_SIZE":"LARGE","MEAN_ANOMALY":"249.7965","OBJECT_ID":"2020-025AG","MEAN_MOTION_DOT":"0.00025533","PERIOD":"95.311","SITE":"AFETR","MEAN_ELEMENT_THEORY":"SGP4","GP_ID":"200699233","MEAN_MOTION":"15.10847221","TIME_SYSTEM":"UTC","FILE":"3392478","ECCENTRICITY":"0.00017380","ELEMENT_SET_NO":"999","REF_FRAME":"TEME","RA_OF_ASC_NODE":"306.5334","MEAN_MOTION_DDOT":"0.0000000000000","REV_AT_EPOCH":"11079","OBJECT_NAME":"STARLINK-1348","SEMIMAJOR_AXIS":"6911.752","DECAY_DATE":null},{"SITE":"AFETR","PERIOD":"95.592","MEAN_MOTION_DOT":"0.00004700","GP_ID":"200697982","MEAN_ELEMENT_THEORY":"SGP4","MEAN_MOTION":"15.06403427","CENTER_NAME":"EARTH","ARG_OF_PERICENTER":"71.8799","TLE_LINE2":"2 45562  53.0551  34.4789 0001453  71.8799 288.2348 15.06403427109559","TLE_LINE1":"1 45562U 20025AH  22097.82995307  .00004700  00000-0  33420-3 0  9990","APOAPSIS":"548.209","OBJECT_ID":"2020-025AH","RCS_SIZE":"LARGE","MEAN_ANOMALY":"288.2348","CLASSIFICATION_TYPE":"U","EPHEMERIS_TYPE":"0","LAUNCH_DATE":"2020-04-22","NORAD_CAT_ID":"45562","OBJECT_TYPE":"PAYLOAD","COUNTRY_CODE":"US","EPOCH":"2022-04-07T19:55:07.945248","INCLINATION":"53.0551","PERIAPSIS":"546.197","BSTAR":"0.00033420000000","OBJECT_NAME":"STARLINK-1354","SEMIMAJOR_AXIS":"6925.338","DECAY_DATE":null,"RA_OF_ASC_NODE":"34.4789","MEAN_MOTION_DDOT":"0.0000000000000","REV_AT_EPOCH":"10955","ELEMENT_SET_NO":"999","REF_FRAME":"TEME","TIME_SYSTEM":"UTC","ECCENTRICITY":"0.00014530","FILE":"3392478"},{"TLE_LINE2":"2 45563  53.0542  34.4333 0001488  64.7524 295.3619 15.06407336109553","APOAPSIS":"548.222","TLE_LINE1":"1 45563U 20025AJ  22097.84469991  .00005196  00000-0  36742-3 0  9998","ARG_OF_PERICENTER":"64.7524","CENTER_NAME":"EARTH","OBJECT_ID":"2020-025AJ","MEAN_ANOMALY":"295.3619","RCS_SIZE":"LARGE","GP_ID":"200698232","MEAN_ELEMENT_THEORY":"SGP4","SITE":"AFETR","PERIOD":"95.592","MEAN_MOTION_DOT":"0.00005196","MEAN_MOTION":"15.06407336","INCLINATION":"53.0542","PERIAPSIS":"546.161","BSTAR":"0.00036742000000","LAUNCH_DATE":"2020-04-22","CLASSIFICATION_TYPE":"U","EPHEMERIS_TYPE":"0","COUNTRY_CODE":"US","OBJECT_TYPE":"PAYLOAD","EPOCH":"2022-04-07T20:16:22.072224","NORAD_CAT_ID":"45563","RA_OF_ASC_NODE":"34.4333","REV_AT_EPOCH":"10955","MEAN_MOTION_DDOT":"0.0000000000000","OBJECT_NAME":"STARLINK-1355","DECAY_DATE":null,"SEMIMAJOR_AXIS":"6925.326","ECCENTRICITY":"0.00014880","FILE":"3392478","TIME_SYSTEM":"UTC","REF_FRAME":"TEME","ELEMENT_SET_NO":"999"},{"ELEMENT_SET_NO":"999","REF_FRAME":"TEME","FILE":"3392478","ECCENTRICITY":"0.00015610","TIME_SYSTEM":"UTC","OBJECT_NAME":"STARLINK-1356","DECAY_DATE":null,"SEMIMAJOR_AXIS":"6925.262","RA_OF_ASC_NODE":"34.4304","REV_AT_EPOCH":"10955","MEAN_MOTION_DDOT":"0.0000000000000","LAUNCH_DATE":"2020-04-22","EPHEMERIS_TYPE":"0","CLASSIFICATION_TYPE":"U","EPOCH":"2022-04-07T20:11:02.342976","OBJECT_TYPE":"PAYLOAD","COUNTRY_CODE":"US","NORAD_CAT_ID":"45564","INCLINATION":"53.0563","BSTAR":"-0.00025314000000","PERIAPSIS":"546.046","MEAN_ELEMENT_THEORY":"SGP4","GP_ID":"200699479","PERIOD":"95.590","MEAN_MOTION_DOT":"-0.00004053","SITE":"AFETR","MEAN_MOTION":"15.06428367","TLE_LINE1":"1 45564U 20025AK  22097.84099934 -.00004053  00000-0 -25314-3 0  9991","APOAPSIS":"548.208","TLE_LINE2":"2 45564  53.0563  34.4304 0001561  64.9492 295.1658 15.06428367109551","CENTER_NAME":"EARTH","ARG_OF_PERICENTER":"64.9492","RCS_SIZE":"LARGE","MEAN_ANOMALY":"295.1658","OBJECT_ID":"2020-025AK"},{"RA_OF_ASC_NODE":"34.4680","MEAN_MOTION_DDOT":"0.0000000000000","REV_AT_EPOCH":"10955","OBJECT_NAME":"STARLINK-1357","SEMIMAJOR_AXIS":"6925.320","DECAY_DATE":null,"TIME_SYSTEM":"UTC","FILE":"3392478","ECCENTRICITY":"0.00014120","ELEMENT_SET_NO":"999","REF_FRAME":"TEME","CENTER_NAME":"EARTH","ARG_OF_PERICENTER":"67.3984","APOAPSIS":"548.163","TLE_LINE1":"1 45565U 20025AL  22097.83363664  .00005313  00000-0  37518-3 0  9992","TLE_LINE2":"2 45565  53.0550  34.4680 0001412  67.3984 292.7154 15.06409362109551","RCS_SIZE":"LARGE","MEAN_ANOMALY":"292.7154","OBJECT_ID":"2020-025AL","PERIOD":"95.592","MEAN_MOTION_DOT":"0.00005313","SITE":"AFETR","MEAN_ELEMENT_THEORY":"SGP4","GP_ID":"200699734","MEAN_MOTION":"15.06409362","INCLINATION":"53.0550","BSTAR":"0.00037518000000","PERIAPSIS":"546.207","EPHEMERIS_TYPE":"0","CLASSIFICATION_TYPE":"U","LAUNCH_DATE":"2020-04-22","NORAD_CAT_ID":"45565","EPOCH":"2022-04-07T20:00:26.205696","OBJECT_TYPE":"PAYLOAD","COUNTRY_CODE":"US"},{"REF_FRAME":"TEME","ELEMENT_SET_NO":"999","TIME_SYSTEM":"UTC","FILE":"3392050","ECCENTRICITY":"0.00015700","OBJECT_NAME":"STARLINK-1358","SEMIMAJOR_AXIS":"6925.344","DECAY_DATE":null,"RA_OF_ASC_NODE":"35.8997","MEAN_MOTION_DDOT":"0.0000000000000","REV_AT_EPOCH":"10890","EPHEMERIS_TYPE":"0","CLASSIFICATION_TYPE":"U","LAUNCH_DATE":"2020-04-22","NORAD_CAT_ID":"45566","EPOCH":"2022-04-07T12:23:58.261056","COUNTRY_CODE":"US","OBJECT_TYPE":"PAYLOAD","INCLINATION":"53.0562","BSTAR":"-0.00001977200000","PERIAPSIS":"546.122","MEAN_MOTION_DOT":"-0.00000576","PERIOD":"95.592","SITE":"AFETR","MEAN_ELEMENT_THEORY":"SGP4","GP_ID":"200669406","MEAN_MOTION":"15.06401417","ARG_OF_PERICENTER":"55.4790","CENTER_NAME":"EARTH","TLE_LINE1":"1 45566U 20025AM  22097.51664654 -.00000576  00000-0 -19772-4 0  9992","APOAPSIS":"548.296","TLE_LINE2":"2 45566  53.0562  35.8997 0001570  55.4790 304.6347 15.06401417108907","MEAN_ANOMALY":"304.6347","RCS_SIZE":"LARGE","OBJECT_ID":"2020-025AM"},{"LAUNCH_DATE":"2020-04-22","EPHEMERIS_TYPE":"0","CLASSIFICATION_TYPE":"U","EPOCH":"2022-04-07T12:39:53.383680","OBJECT_TYPE":"PAYLOAD","COUNTRY_CODE":"US","NORAD_CAT_ID":"45567","INCLINATION":"53.0560","BSTAR":"0.00012096000000","PERIAPSIS":"546.202","MEAN_ELEMENT_THEORY":"SGP4","GP_ID":"200659619","PERIOD":"95.592","MEAN_MOTION_DOT":"0.00001521","SITE":"AFETR","MEAN_MOTION":"15.06399983","APOAPSIS":"548.225","TLE_LINE1":"1 45567U 20025AN  22097.52770120  .00001521  00000-0  12096-3 0  9990","TLE_LINE2":"2 45567  53.0560  35.8336 0001461  75.0569 285.0582 15.06399983109519","CENTER_NAME":"EARTH","ARG_OF_PERICENTER":"75.0569","MEAN_ANOMALY":"285.0582","RCS_SIZE":"LARGE","OBJECT_ID":"2020-025AN","REF_FRAME":"TEME","ELEMENT_SET_NO":"999","ECCENTRICITY":"0.00014610","FILE":"3391885","TIME_SYSTEM":"UTC","OBJECT_NAME":"STARLINK-1361","DECAY_DATE":null,"SEMIMAJOR_AXIS":"6925.349","RA_OF_ASC_NODE":"35.8336","REV_AT_EPOCH":"10951","MEAN_MOTION_DDOT":"0.0000000000000"},{"ELEMENT_SET_NO":"999","REF_FRAME":"TEME","FILE":"3392478","ECCENTRICITY":"0.00015450","TIME_SYSTEM":"UTC","DECAY_DATE":null,"SEMIMAJOR_AXIS":"6925.306","OBJECT_NAME":"STARLINK-1363","REV_AT_EPOCH":"10955","MEAN_MOTION_DDOT":"0.0000000000000","RA_OF_ASC_NODE":"34.3940","COUNTRY_CODE":"US","OBJECT_TYPE":"PAYLOAD","EPOCH":"2022-04-07T20:25:37.277760","NORAD_CAT_ID":"45568","LAUNCH_DATE":"2020-04-22","CLASSIFICATION_TYPE":"U","EPHEMERIS_TYPE":"0","PERIAPSIS":"546.101","BSTAR":"0.00065719000000","INCLINATION":"53.0555","MEAN_MOTION":"15.06413869","GP_ID":"200698979","MEAN_ELEMENT_THEORY":"SGP4","SITE":"AFETR","MEAN_MOTION_DOT":"0.00009524","PERIOD":"95.591","OBJECT_ID":"2020-025AP","RCS_SIZE":"LARGE","MEAN_ANOMALY":"283.1407","TLE_LINE2":"2 45568  53.0555  34.3940 0001545  76.9754 283.1407 15.06413869109557","TLE_LINE1":"1 45568U 20025AP  22097.85112590  .00009524  00000-0  65719-3 0  9999","APOAPSIS":"548.241","CENTER_NAME":"EARTH","ARG_OF_PERICENTER":"76.9754"},{"REF_FRAME":"TEME","ELEMENT_SET_NO":"999","TIME_SYSTEM":"UTC","FILE":"3392478","ECCENTRICITY":"0.00016350","OBJECT_NAME":"STARLINK-1366","SEMIMAJOR_AXIS":"6925.351","DECAY_DATE":null,"RA_OF_ASC_NODE":"34.3373","MEAN_MOTION_DDOT":"0.0000000000000","REV_AT_EPOCH":"10955","CLASSIFICATION_TYPE":"U","EPHEMERIS_TYPE":"0","LAUNCH_DATE":"2020-04-22","NORAD_CAT_ID":"45569","COUNTRY_CODE":"US","OBJECT_TYPE":"PAYLOAD","EPOCH":"2022-04-07T20:42:53.604288","INCLINATION":"53.0564","PERIAPSIS":"546.084","BSTAR":"0.00016437000000","SITE":"AFETR","PERIOD":"95.592","MEAN_MOTION_DOT":"0.00002168","GP_ID":"200699234","MEAN_ELEMENT_THEORY":"SGP4","MEAN_MOTION":"15.06399135","CENTER_NAME":"EARTH","ARG_OF_PERICENTER":"56.4313","TLE_LINE2":"2 45569  53.0564  34.3373 0001635  56.4313 303.6832 15.06399135109551","TLE_LINE1":"1 45569U 20025AQ  22097.86312042  .00002168  00000-0  16437-3 0  9995","APOAPSIS":"548.349","OBJECT_ID":"2020-025AQ","RCS_SIZE":"LARGE","MEAN_ANOMALY":"303.6832"},{"ELEMENT_SET_NO":"999","REF_FRAME":"TEME","FILE":"3392048","ECCENTRICITY":"0.00014250","TIME_SYSTEM":"UTC","DECAY_DATE":null,"SEMIMAJOR_AXIS":"6925.334","OBJECT_NAME":"STARLINK-1376","REV_AT_EPOCH":"10890","MEAN_MOTION_DDOT":"0.0000000000000","RA_OF_ASC_NODE":"35.8532","COUNTRY_CODE":"US","OBJECT_TYPE":"PAYLOAD","EPOCH":"2022-04-07T12:34:34.817376","NORAD_CAT_ID":"45570","LAUNCH_DATE":"2020-04-22","CLASSIFICATION_TYPE":"U","EPHEMERIS_TYPE":"0","PERIAPSIS":"546.212","BSTAR":"0.00006849800000","INCLINATION":"53.0561","MEAN_MOTION":"15.06404873","GP_ID":"200669373","MEAN_ELEMENT_THEORY":"SGP4","SITE":"AFETR","MEAN_MOTION_DOT":"0.00000739","PERIOD":"95.592","OBJECT_ID":"2020-025AR","MEAN_ANOMALY":"289.5949","RCS_SIZE":"LARGE","TLE_LINE2":"2 45570  53.0561  35.8532 0001425  70.5194 289.5949 15.06404873108909","TLE_LINE1":"1 45570U 20025AR  22097.52401409  .00000739  00000-0  68498-4 0  9993","APOAPSIS":"548.185","ARG_OF_PERICENTER":"70.5194","CENTER_NAME":"EARTH"}];
